CCSDS_OMM_VERS = 2.0
CREATION_DATE  = 
ORIGINATOR     = 

OBJECT_NAME    = HTV-X1
OBJECT_ID      = 2025-241A
CENTER_NAME    = EARTH
REF_FRAME      = TEME
TIME_SYSTEM    = UTC
MEAN_ELEMENT_THEORY = SGP/SGP4

EPOCH          = 2026-03-30T04:36:32.171328
MEAN_MOTION    = 15.32482714
ECCENTRICITY   = .0007237
INCLINATION    = 51.6383
RA_OF_ASC_NODE = 334.2620
ARG_OF_PERICENTER = 252.1007
MEAN_ANOMALY   = 107.9185

EPHEMERIS_TYPE = 0
CLASSIFICATION_TYPE = U
NORAD_CAT_ID   = 66174
ELEMENT_SET_NO = 999
REV_AT_EPOCH   = 2408
BSTAR          = .10144E-3
MEAN_MOTION_DOT = .286E-4
MEAN_MOTION_DDOT = 0

CCSDS_OMM_VERS = 2.0
CREATION_DATE  = 
ORIGINATOR     = 

OBJECT_NAME    = SZ-21 MODULE
OBJECT_ID      = 2025-246C
CENTER_NAME    = EARTH
REF_FRAME      = TEME
TIME_SYSTEM    = UTC
MEAN_ELEMENT_THEORY = SGP/SGP4

EPOCH          = 2026-03-30T07:26:18.451392
MEAN_MOTION    = 15.70166693
ECCENTRICITY   = .000202
INCLINATION    = 41.4738
RA_OF_ASC_NODE = 76.2734
ARG_OF_PERICENTER = 214.1142
MEAN_ANOMALY   = 145.9571

EPHEMERIS_TYPE = 0
CLASSIFICATION_TYPE = U
NORAD_CAT_ID   = 66515
ELEMENT_SET_NO = 999
REV_AT_EPOCH   = 2131
BSTAR          = .38893E-3
MEAN_MOTION_DOT = .48483E-3
MEAN_MOTION_DDOT = 0

CCSDS_OMM_VERS = 2.0
CREATION_DATE  = 
ORIGINATOR     = 

OBJECT_NAME    = SHENZHOU-22
OBJECT_ID      = 2025-272A
CENTER_NAME    = EARTH
REF_FRAME      = TEME
TIME_SYSTEM    = UTC
MEAN_ELEMENT_THEORY = SGP/SGP4

EPOCH          = 2026-03-28T23:18:08.263008
MEAN_MOTION    = 15.61596075
ECCENTRICITY   = .0003972
INCLINATION    = 41.4668
RA_OF_ASC_NODE = 90.7542
ARG_OF_PERICENTER = 51.5615
MEAN_ANOMALY   = 308.5580

EPHEMERIS_TYPE = 0
CLASSIFICATION_TYPE = U
NORAD_CAT_ID   = 66645
ELEMENT_SET_NO = 999
REV_AT_EPOCH   = 28085
BSTAR          = .17362E-3
MEAN_MOTION_DOT = .15046E-3
MEAN_MOTION_DDOT = 0

CCSDS_OMM_VERS = 2.0
CREATION_DATE  = 
ORIGINATOR     = 

OBJECT_NAME    = SOYUZ-MS 28
OBJECT_ID      = 2025-275A
CENTER_NAME    = EARTH
REF_FRAME      = TEME
TIME_SYSTEM    = UTC
MEAN_ELEMENT_THEORY = SGP/SGP4

EPOCH          = 2026-03-30T08:36:35.879040
MEAN_MOTION    = 15.48652900
ECCENTRICITY   = .0006212
INCLINATION    = 51.6343
RA_OF_ASC_NODE = 330.1789
ARG_OF_PERICENTER = 250.3608
MEAN_ANOMALY   = 109.6710

EPHEMERIS_TYPE = 0
CLASSIFICATION_TYPE = U
NORAD_CAT_ID   = 66664
ELEMENT_SET_NO = 999
REV_AT_EPOCH   = 55961
BSTAR          = .22376E-3
MEAN_MOTION_DOT = .11753E-3
MEAN_MOTION_DDOT = 0

CCSDS_OMM_VERS = 2.0
CREATION_DATE  = 
ORIGINATOR     = 

OBJECT_NAME    = DUPLEX
OBJECT_ID      = 1998-067XS
CENTER_NAME    = EARTH
REF_FRAME      = TEME
TIME_SYSTEM    = UTC
MEAN_ELEMENT_THEORY = SGP/SGP4

EPOCH          = 2026-03-29T22:24:55.678464
MEAN_MOTION    = 15.57577255
ECCENTRICITY   = .0003066
INCLINATION    = 51.6302
RA_OF_ASC_NODE = 328.0933
ARG_OF_PERICENTER = 205.1943
MEAN_ANOMALY   = 154.8900

EPHEMERIS_TYPE = 0
CLASSIFICATION_TYPE = U
NORAD_CAT_ID   = 66906
ELEMENT_SET_NO = 999
REV_AT_EPOCH   = 1828
BSTAR          = .49191E-3
MEAN_MOTION_DOT = .36667E-3
MEAN_MOTION_DDOT = 0

CCSDS_OMM_VERS = 2.0
CREATION_DATE  = 
ORIGINATOR     = 

OBJECT_NAME    = ISS OBJECT XT
OBJECT_ID      = 1998-067XT
CENTER_NAME    = EARTH
REF_FRAME      = TEME
TIME_SYSTEM    = UTC
MEAN_ELEMENT_THEORY = SGP/SGP4

EPOCH          = 2026-03-30T08:36:14.686848
MEAN_MOTION    = 15.77137224
ECCENTRICITY   = .0006263
INCLINATION    = 51.6238
RA_OF_ASC_NODE = 319.6397
ARG_OF_PERICENTER = 214.5575
MEAN_ANOMALY   = 145.5019

EPHEMERIS_TYPE = 0
CLASSIFICATION_TYPE = U
NORAD_CAT_ID   = 66907
ELEMENT_SET_NO = 999
REV_AT_EPOCH   = 1843
BSTAR          = .15408E-2
MEAN_MOTION_DOT = .264942E-2
MEAN_MOTION_DDOT = 0

CCSDS_OMM_VERS = 2.0
CREATION_DATE  = 
ORIGINATOR     = 

OBJECT_NAME    = ISS OBJECT XU
OBJECT_ID      = 1998-067XU
CENTER_NAME    = EARTH
REF_FRAME      = TEME
TIME_SYSTEM    = UTC
MEAN_ELEMENT_THEORY = SGP/SGP4

EPOCH          = 2026-03-30T00:54:15.502752
MEAN_MOTION    = 15.77231369
ECCENTRICITY   = .0006488
INCLINATION    = 51.6244
RA_OF_ASC_NODE = 321.2426
ARG_OF_PERICENTER = 211.6504
MEAN_ANOMALY   = 148.4107

EPHEMERIS_TYPE = 0
CLASSIFICATION_TYPE = U
NORAD_CAT_ID   = 66908
ELEMENT_SET_NO = 999
REV_AT_EPOCH   = 1838
BSTAR          = .15861079E-2
MEAN_MOTION_DOT = .274217E-2
MEAN_MOTION_DDOT = 0

CCSDS_OMM_VERS = 2.0
CREATION_DATE  = 
ORIGINATOR     = 

OBJECT_NAME    = SILVERSAT
OBJECT_ID      = 1998-067XV
CENTER_NAME    = EARTH
REF_FRAME      = TEME
TIME_SYSTEM    = UTC
MEAN_ELEMENT_THEORY = SGP/SGP4

EPOCH          = 2026-03-30T01:12:48.546432
MEAN_MOTION    = 15.82812364
ECCENTRICITY   = .00074405
INCLINATION    = 51.6206
RA_OF_ASC_NODE = 319.8153
ARG_OF_PERICENTER = 218.1969
MEAN_ANOMALY   = 141.8508

EPHEMERIS_TYPE = 0
CLASSIFICATION_TYPE = U
NORAD_CAT_ID   = 66909
ELEMENT_SET_NO = 999
REV_AT_EPOCH   = 1840
BSTAR          = .1796098E-2
MEAN_MOTION_DOT = .407211E-2
MEAN_MOTION_DDOT = 0

CCSDS_OMM_VERS = 2.0
CREATION_DATE  = 
ORIGINATOR     = 

OBJECT_NAME    = ISS OBJECT XW
OBJECT_ID      = 1998-067XW
CENTER_NAME    = EARTH
REF_FRAME      = TEME
TIME_SYSTEM    = UTC
MEAN_ELEMENT_THEORY = SGP/SGP4

EPOCH          = 2026-03-30T08:48:36.662400
MEAN_MOTION    = 15.75574408
ECCENTRICITY   = .0006605
INCLINATION    = 51.6226
RA_OF_ASC_NODE = 319.6895
ARG_OF_PERICENTER = 211.3054
MEAN_ANOMALY   = 148.7553

EPHEMERIS_TYPE = 0
CLASSIFICATION_TYPE = U
NORAD_CAT_ID   = 66910
ELEMENT_SET_NO = 999
REV_AT_EPOCH   = 1843
BSTAR          = .14122E-2
MEAN_MOTION_DOT = .22558E-2
MEAN_MOTION_DDOT = 0

CCSDS_OMM_VERS = 2.0
CREATION_DATE  = 
ORIGINATOR     = 

OBJECT_NAME    = ISS OBJECT XX
OBJECT_ID      = 1998-067XX
CENTER_NAME    = EARTH
REF_FRAME      = TEME
TIME_SYSTEM    = UTC
MEAN_ELEMENT_THEORY = SGP/SGP4

EPOCH          = 2026-03-30T01:11:48.557184
MEAN_MOTION    = 15.89992483
ECCENTRICITY   = .00094324
INCLINATION    = 51.6172
RA_OF_ASC_NODE = 318.2730
ARG_OF_PERICENTER = 222.9554
MEAN_ANOMALY   = 137.0716

EPHEMERIS_TYPE = 0
CLASSIFICATION_TYPE = U
NORAD_CAT_ID   = 66911
ELEMENT_SET_NO = 999
REV_AT_EPOCH   = 1841
BSTAR          = .19125411E-2
MEAN_MOTION_DOT = .585789E-2
MEAN_MOTION_DDOT = .14316422E-3

CCSDS_OMM_VERS = 2.0
CREATION_DATE  = 
ORIGINATOR     = 

OBJECT_NAME    = ISS OBJECT XY
OBJECT_ID      = 1998-067XY
CENTER_NAME    = EARTH
REF_FRAME      = TEME
TIME_SYSTEM    = UTC
MEAN_ELEMENT_THEORY = SGP/SGP4

EPOCH          = 2026-03-30T00:08:30.971328
MEAN_MOTION    = 15.67909669
ECCENTRICITY   = .00045094
INCLINATION    = 51.6265
RA_OF_ASC_NODE = 324.0610
ARG_OF_PERICENTER = 207.7928
MEAN_ANOMALY   = 152.2828

EPHEMERIS_TYPE = 0
CLASSIFICATION_TYPE = U
NORAD_CAT_ID   = 66912
ELEMENT_SET_NO = 999
REV_AT_EPOCH   = 1833
BSTAR          = .11880079E-2
MEAN_MOTION_DOT = .135548E-2
MEAN_MOTION_DDOT = 0

CCSDS_OMM_VERS = 2.0
CREATION_DATE  = 
ORIGINATOR     = 

OBJECT_NAME    = KNACKSAT-2
OBJECT_ID      = 1998-067XZ
CENTER_NAME    = EARTH
REF_FRAME      = TEME
TIME_SYSTEM    = UTC
MEAN_ELEMENT_THEORY = SGP/SGP4

EPOCH          = 2026-03-30T09:18:24.907392
MEAN_MOTION    = 15.53571824
ECCENTRICITY   = .0010124
INCLINATION    = 51.6325
RA_OF_ASC_NODE = 328.8747
ARG_OF_PERICENTER = 261.2248
MEAN_ANOMALY   = 98.7596

EPHEMERIS_TYPE = 0
CLASSIFICATION_TYPE = U
NORAD_CAT_ID   = 67683
ELEMENT_SET_NO = 999
REV_AT_EPOCH   = 800
BSTAR          = .7665E-3
MEAN_MOTION_DOT = .49653E-3
MEAN_MOTION_DDOT = 0

